H1 CPF  1  DLR 2022 07 10 10  6912 technosat            
H2  1704205 6203    42829 2022 07 10 00 00 00 2022 07 17 00 00 00    60 1 1  0 0 0
H9
10 0 59774  43200.000000  0       1185782.589       -404038.704      -6855188.480
10 0 59774  43260.000000  0       1368138.953       -817347.807      -6784038.576
10 0 59774  43320.000000  0       1541143.635      -1228780.343      -6684201.268
10 0 59774  43380.000000  0       1704093.511      -1636523.376      -6556093.832
10 0 59774  43440.000000  0       1856343.000      -2038772.668      -6400252.217
10 0 59774  43500.000000  0       1997306.628      -2433740.586      -6217329.015
10 0 59774  43560.000000  0       2126461.284      -2819664.025      -6008091.037
10 0 59774  43620.000000  0       2243348.240      -3194812.392      -5773416.422
10 0 59774  43680.000000  0       2347574.846      -3557495.545      -5514291.150
10 0 59774  43740.000000  0       2438815.848      -3906071.514      -5231805.019
10 0 59774  43800.000000  0       2516814.367      -4238953.990      -4927147.249
10 0 59774  43860.000000  0       2581382.571      -4554619.667      -4601601.704
10 0 59774  43920.000000  0       2632401.983      -4851615.368      -4256541.705
10 0 59774  43980.000000  0       2669823.462      -5128564.998      -3893424.466
10 0 59774  44040.000000  0       2693666.818      -5384176.231      -3513785.062
10 0 59774  44100.000000  0       2704020.092      -5617246.823      -3119229.989
10 0 59774  44160.000000  0       2701038.491      -5826670.505      -2711430.375
10 0 59774  44220.000000  0       2684943.014      -6011442.511      -2292114.918
10 0 59774  44280.000000  0       2656018.711      -6170664.711      -1863062.497
10 0 59774  44340.000000  0       2614612.595      -6303550.272      -1426094.477
10 0 59774  44400.000000  0       2561131.260      -6409427.697       -983066.734
10 0 59774  44460.000000  0       2496038.130      -6487744.321       -535861.520
10 0 59774  44520.000000  0       2419850.424      -6538069.226        -86379.225
10 0 59774  44580.000000  0       2333135.884      -6560095.579        363469.881
10 0 59774  44640.000000  0       2236509.270      -6553642.462        811773.989
10 0 59774  44700.000000  0       2130628.637      -6518656.051       1256628.206
10 0 59774  44760.000000  0       2016191.365      -6455210.130       1696142.980
10 0 59774  44820.000000  0       1893929.939      -6363505.897       2128452.422
10 0 59774  44880.000000  0       1764607.643      -6243871.172       2551722.321
10 0 59774  44940.000000  0       1629014.166      -6096759.101       2964158.115
10 0 59774  45000.000000  0       1487961.071      -5922746.163       3364012.623
10 0 59774  45060.000000  0       1342277.177      -5722529.631       3749593.499
10 0 59774  45120.000000  0       1192803.932      -5496924.469       4119270.387
10 0 59774  45180.000000  0       1040390.791      -5246859.743       4471481.760
10 0 59774  45240.000000  0        885890.590      -4973374.543       4804741.498
10 0 59774  45300.000000  0        730154.901      -4677613.339       5117645.094
10 0 59774  45360.000000  0        574029.493      -4360820.831       5408875.416
10 0 59774  45420.000000  0        418349.925      -4024336.403       5677208.058
10 0 59774  45480.000000  0        263937.245      -3669588.137       5921516.250
10 0 59774  45540.000000  0        111593.808      -3298086.512       6140775.277
10 0 59774  45600.000000  0        -37900.756      -2911417.812       6334066.465
10 0 59774  45660.000000  0       -183793.399      -2511237.267       6500580.722
10 0 59774  45720.000000  0       -325361.299      -2099261.928       6639621.673
10 0 59774  45780.000000  0       -461915.317      -1677263.313       6750608.342
10 0 59774  45840.000000  0       -592803.267      -1247059.809       6833077.414
10 0 59774  45900.000000  0       -717412.927       -810508.847       6886685.026
10 0 59774  45960.000000  0       -835174.838       -369498.933       6911208.067
10 0 59774  46020.000000  0       -945564.864         74058.438       6906544.997
10 0 59774  46080.000000  0      -1048106.477        518236.962       6872716.220
10 0 59774  46140.000000  0      -1142372.771        961103.798       6809863.967
10 0 59774  46200.000000  0      -1227988.205       1400727.839       6718251.729
10 0 59774  46260.000000  0      -1304630.084       1835188.022       6598263.265
10 0 59774  46320.000000  0      -1372029.764       2262581.640       6450401.110
10 0 59774  46380.000000  0      -1429973.574       2681032.582       6275284.647
10 0 59774  46440.000000  0      -1478303.472       3088699.558       6073647.724
10 0 59774  46500.000000  0      -1516917.391       3483784.183       5846335.754
10 0 59774  46560.000000  0      -1545769.248       3864538.901       5594302.456
10 0 59774  46620.000000  0      -1564868.723       4229274.830       5318606.172
10 0 59774  46680.000000  0      -1574280.749       4576369.421       5020405.663
10 0 59774  46740.000000  0      -1574124.716       4904273.845       4700955.456
10 0 59774  46800.000000  0      -1564573.349       5211520.124       4361600.768
10 0 59774  46860.000000  0      -1545851.279       5496727.932       4003772.019
10 0 59774  46920.000000  0      -1518233.388       5758611.014       3628978.983
10 0 59774  46980.000000  0      -1482042.957       5995983.292       3238804.583
10 0 59774  47040.000000  0      -1437649.534       6207764.572       2834898.249
10 0 59774  47100.000000  0      -1385466.464       6392985.801       2418968.954
10 0 59774  47160.000000  0      -1325948.150       6550793.810       1992777.921
10 0 59774  47220.000000  0      -1259587.123       6680455.491       1558131.087
10 0 59774  47280.000000  0      -1186910.912       6781361.421       1116871.340
10 0 59774  47340.000000  0      -1108478.729       6853028.936        670870.583
10 0 59774  47400.000000  0      -1024877.986       6895104.649        222021.653
10 0 59774  47460.000000  0       -936720.655       6907366.404       -227769.937
10 0 59774  47520.000000  0       -844639.458       6889724.533       -676594.417
10 0 59774  47580.000000  0       -749283.986       6842222.383      -1122546.200
10 0 59774  47640.000000  0       -651316.734       6765036.144      -1563732.252
10 0 59774  47700.000000  0       -551409.099       6658474.037      -1998280.326
10 0 59774  47760.000000  0       -450237.367       6522974.910      -2424347.057
10 0 59774  47820.000000  0       -348478.708       6359106.226      -2840125.914
10 0 59774  47880.000000  0       -246807.182       6167561.482      -3243854.961
10 0 59774  47940.000000  0       -145889.764       5949157.033      -3633824.418
10 0 59774  48000.000000  0        -46382.433       5704828.341      -4008383.956
10 0 59774  48060.000000  0         51073.624       5435625.672      -4365949.714
10 0 59774  48120.000000  0        145855.722       5142709.262      -4705010.945
10 0 59774  48180.000000  0        237363.248       4827344.036      -5024136.312
10 0 59774  48240.000000  0        325021.093       4490893.866      -5321979.832
10 0 59774  48300.000000  0        408282.905       4134815.386      -5597286.414
10 0 59774  48360.000000  0        486634.138       3760651.421      -5848896.967
10 0 59774  48420.000000  0        559594.895       3370024.051      -6075753.064
10 0 59774  48480.000000  0        626722.559       2964627.403      -6276901.147
10 0 59774  48540.000000  0        687614.202       2546220.162      -6451496.293
10 0 59774  48600.000000  0        741908.776       2116617.879      -6598805.476
10 0 59774  48660.000000  0        789289.051       1677685.103      -6718210.461
10 0 59774  48720.000000  0        829483.273       1231327.239      -6809210.234
10 0 59774  48780.000000  0        862266.575        779482.314      -6871422.901
10 0 59774  48840.000000  0        887462.161        324112.650      -6904587.209
10 0 59774  48900.000000  0        904942.192       -132803.650      -6908563.569
10 0 59774  48960.000000  0        914628.373       -589281.221      -6883334.519
10 0 59774  49020.000000  0        916492.304      -1043335.916      -6829004.749
10 0 59774  49080.000000  0        910555.556      -1492993.293      -6745800.692
10 0 59774  49140.000000  0        896889.469      -1936297.033      -6634069.662
10 0 59774  49200.000000  0        875614.721      -2371317.320      -6494278.645
10 0 59774  49260.000000  0        846900.608      -2796159.263      -6327012.639
10 0 59774  49320.000000  0        810963.992      -3208971.246      -6132972.417
10 0 59774  49380.000000  0        768067.985      -3607953.069      -5912971.745
10 0 59774  49440.000000  0        718520.442      -3991363.846      -5667934.166
10 0 59774  49500.000000  0        662672.188      -4357529.689      -5398889.374
10 0 59774  49560.000000  0        600914.995      -4704851.183      -5106969.169
10 0 59774  49620.000000  0        533679.284      -5031810.606      -4793402.942
10 0 59774  49680.000000  0        461431.614      -5336978.831      -4459512.718
10 0 59774  49740.000000  0        384671.945      -5619021.896      -4106707.738
10 0 59774  49800.000000  0        303930.698      -5876707.131      -3736478.619
10 0 59774  49860.000000  0        219765.619      -6108908.844      -3350391.155
10 0 59774  49920.000000  0        132758.484      -6314613.574      -2950079.773
10 0 59774  49980.000000  0         43511.633      -6492924.886      -2537240.651
10 0 59774  50040.000000  0        -47355.623      -6643067.652      -2113624.456
10 0 59774  50100.000000  0       -139210.729      -6764391.725      -1681028.774
10 0 59774  50160.000000  0       -231411.704      -6856374.996      -1241290.320
10 0 59774  50220.000000  0       -323311.018      -6918625.864       -796276.951
10 0 59774  50280.000000  0       -414259.530      -6950885.051       -347879.501
10 0 59774  50340.000000  0       -503610.443      -6953026.783        101996.475
99
